GLOBALSTAR M063         
1 26081U 00008A   25228.41353557 -.00000058  00000+0  36508-3 0  9995
2 26081  51.9973 312.9606 0004893  77.6939   2.0299 11.86175277164788
GLOBALSTAR M062         
1 26082U 00008B   25227.87076132 -.00000068  00000+0  21734-3 0  9992
2 26082  51.9842 280.2741 0007132 236.4117 295.1303 12.43469988504040
GLOBALSTAR M060         
1 26083U 00008C   25228.30379963 -.00000115  00000+0 -23458-3 0  9999
2 26083  51.9994 247.5113 0003350 246.5933 126.8299 12.17664484159863
GLOBALSTAR M064         
1 26084U 00008D   25227.93823146 -.00000091  00000+0 -11561-3 0  9990
2 26084  52.0041  52.3316 0001659 140.7338 219.3615 11.88535512174313
GLOBALSTAR M065         
1 31571U 07020A   25227.88211495 -.00000110  00000+0 -32748-4 0  9993
2 31571  51.9900  44.5733 0010921  81.0678  65.2965 12.62010502840949
GLOBALSTAR M069         
1 31573U 07020C   25228.24156674 -.00000098  00000+0 -52347-4 0  9995
2 31573  52.0048  35.2332 0000594 215.3493 315.8522 12.23460864841413
GLOBALSTAR M072         
1 31574U 07020D   25227.89057672 -.00000066  00000+0  24865-3 0  9991
2 31574  51.9907 193.0247 0001223  68.0472 316.7838 11.91651100838587
GLOBALSTAR M071         
1 31576U 07020F   25227.96025685 -.00000019  00000+0  70950-3 0  9994
2 31576  52.0064  63.3350 0000414 141.9121   6.3707 12.18257059502223
